[{"OBJECT_NAME":"STARLINK-4318","OBJECT_ID":"2022-077AV","EPOCH":"2026-03-09T10:48:22.686048","MEAN_MOTION":15.0127407,"ECCENTRICITY":0.00012121,"INCLINATION":97.6032,"RA_OF_ASC_NODE":249.9879,"ARG_OF_PERICENTER":113.2283,"MEAN_ANOMALY":246.907,"EPHEMERIS_TYPE":0,"CLASSIFICATION_TYPE":"U","NORAD_CAT_ID":53086,"ELEMENT_SET_NO":999,"REV_AT_EPOCH":20088,"BSTAR":0.0001256365,"MEAN_MOTION_DOT":1.556e-5,"MEAN_MOTION_DDOT":0},{"OBJECT_NAME":"DMSP 5D-2 F13 DEB","OBJECT_ID":"1995-015CP","EPOCH":"2026-03-07T12:11:36.379680","MEAN_MOTION":14.97633156,"ECCENTRICITY":0.00060588,"INCLINATION":98.7878,"RA_OF_ASC_NODE":156.2683,"ARG_OF_PERICENTER":182.3212,"MEAN_ANOMALY":177.798,"EPHEMERIS_TYPE":0,"CLASSIFICATION_TYPE":"U","NORAD_CAT_ID":40500,"ELEMENT_SET_NO":999,"REV_AT_EPOCH":57139,"BSTAR":0.013984163,"MEAN_MOTION_DOT":0.00167441,"MEAN_MOTION_DDOT":0}]
